,imgloc,latitude,longitude,address,neighborhood,tags,name,artistname,info
0,https://static1.squarespace.com/static/5ab0771496e76f89eeebf997/5ca3c3e7e4966ba9b7e6f488/5b572aa9f950b7329f3abd59/1556712947246/FullSizeRender-3.jpg,42.3274354,-83.07929020000002,"2605 Newark Street, Detroit, MI",Hubbard - Richard,,DETROIT MURAL #0674,Pat Perry,2018
1,https://static1.squarespace.com/static/5ab0771496e76f89eeebf997/5ca3c3e7e4966ba9b7e6f488/5b52ed900e2e72a1709776d6/1556712947219/FullSizeRender-4.jpg,42.40459300000001,-83.228594,"19031 Grand River Ave, Detroit, MI",Rosedale Park,,DETROIT MURAL #0694,Tony Whlgn,2018
2,https://static1.squarespace.com/static/5ab0771496e76f89eeebf997/5ca3c3e7e4966ba9b7e6f488/5b52eb78758d4613dececcfb/1556712947214/FullSizeRender-5.jpg,42.3274354,-83.07929020000002,"2605 Newark Street, Detroit, MI",Hubbard - Richard,,DETROIT MURAL #0693,Ledania,2018
3,https://static1.squarespace.com/static/5ab0771496e76f89eeebf997/5ca3c3e7e4966ba9b7e6f488/5b2d4895f950b7e7ee07c3eb/1556712947203/FullSizeRender-6.jpg,42.3837434,-83.071422,"8801 Oakland Avenue, Detroit, MI",North End,,DETROIT MURAL #0690,FFTY,2018
4,https://static1.squarespace.com/static/5ab0771496e76f89eeebf997/5ca3c3e7e4966ba9b7e6f488/5b2d488c8a922df608353505/1556712947190/FullSizeRender-7.jpg,42.3485798,-83.0673874,"4126 Third Avenue, Detroit, MI",Midtown,,DETROIT MURAL #0689,Laura Finlay,2018
5,https://static1.squarespace.com/static/5ab0771496e76f89eeebf997/5ca3c3e7e4966ba9b7e6f488/5b2d47b38a922df608350b5d/1556712947179/FullSizeRender-9.jpg,42.3664159,-83.0067409,"7900 Mack Avenue, Detroit, MI",Islandview,,DETROIT MURAL #0687,Ndubisi Okoye,2018
6,https://static1.squarespace.com/static/5ab0771496e76f89eeebf997/5ca3c3e7e4966ba9b7e6f488/5b2d47a26d2a739de2af78e3/1556712947173/FullSizeRender-10.jpg,42.3620336,-82.9816982,"10125 East Jefferson, Detroit, MI",Detroit,,DETROIT MURAL #0686,Michael Burdick and Kelly Golden,2018
7,https://static1.squarespace.com/static/5ab0771496e76f89eeebf997/5ca3c3e7e4966ba9b7e6f488/5b2d46d90e2e72e10f3d7205/1556712947166/FullSizeRender-11.jpg,42.31622,-83.114001,"6600 West Vernor Highway, Detroit, MI",Detroit,,DETROIT MURAL #0671,Bernal Perez,2018
8,https://static1.squarespace.com/static/5ab0771496e76f89eeebf997/5ca3c3e7e4966ba9b7e6f488/5b475955352f53728bd4ae1c/1556712947208/1531402738820.jpeg,42.37694399999999,-83.09584199999999,"1550 Taylor Street, Detroit, MI",Virginia Park,,DETROIT MURAL #0682,Tylonn J. Sawyer,2018
9,https://static1.squarespace.com/static/5ab0771496e76f89eeebf997/5ca3c3e7e4966ba9b7e6f488/5b16ae130e2e72611beb90d2/1556712947096/FullSizeRender-4.jpg,42.3101065,-83.09434499999999,"4847 Fort Street, Detroit, MI",Delray,,DETROIT MURAL #0625,Patch Whisky,2018
10,https://static1.squarespace.com/static/5ab0771496e76f89eeebf997/5ca3c3e7e4966ba9b7e6f488/5b16ae0f575d1f3054e7b1e3/1556712947090/FullSizeRender-5.jpg,42.3101065,-83.09434499999999,"4847 Fort Street, Detroit, MI",Delray,,DETROIT MURAL #0624,Ghost Beard,2018
11,https://static1.squarespace.com/static/5ab0771496e76f89eeebf997/5ca3c3e7e4966ba9b7e6f488/5b16ae0a8a922d0c6b547cc5/1556712947085/FullSizeRender.jpg,42.3316567,-83.09298439999999,"3546 Michigan Avenue, Detroit, MI",Mexicantown - Southwest Detroit,,DETROIT MURAL #0623,Nate Otto,2018
12,https://static1.squarespace.com/static/5ab0771496e76f89eeebf997/5ca3c3e7e4966ba9b7e6f488/5b16ae05562fa7121fb167f2/1556712947079/FullSizeRender-3.jpg,42.3343423,-83.0501176,"1457 Griswold St, Detroit, MI",Downtown Detroit,,DETROIT MURAL #0622,Bunnie Reiss,2018
13,https://static1.squarespace.com/static/5ab0771496e76f89eeebf997/5ca3c3e7e4966ba9b7e6f488/5b16adfe70a6ad59dcddb4fa/1556712947073/FullSizeRender-6.jpg,42.3323959,-83.0416336,"431 E Congress St, Detroit, MI",Downtown Detroit,,DETROIT MURAL #0621,Phybr,2018
14,https://static1.squarespace.com/static/5ab0771496e76f89eeebf997/5ca3c3e7e4966ba9b7e6f488/5b16ade488251b408d60b8bd/1556712947068/FullSizeRender-1.jpg,42.3669439,-83.06803099999999,"6060 John R Street, Detroit, MI",Milwaukee Junction,,DETROIT MURAL #0620,Phil Simpson,2018
15,https://static1.squarespace.com/static/5ab0771496e76f89eeebf997/5ca3c3e7e4966ba9b7e6f488/5b16adde575d1f3054e7a699/1556712947062/FullSizeRender-2.jpg,42.3519788,-83.0673671,"4475 2nd Avenue, Detroit, MI",Midtown,,DETROIT MURAL #0619,Michelle Tanguay,2018
16,https://static1.squarespace.com/static/5ab0771496e76f89eeebf997/5ca3c3e7e4966ba9b7e6f488/5b16add92b6a28229d7dec6e/1556712947056/FullSizeRender.jpg,42.3768624,-83.07770529999999,"(near) 8359 Woodward Ave, Detroit, MI",Virginia Park,,DETROIT MURAL #0618,Julien de Casabianca,2018
17,https://static1.squarespace.com/static/5ab0771496e76f89eeebf997/5ca3c3e7e4966ba9b7e6f488/5b16add403ce64105923d6fb/1556712947048/FullSizeRender-1.jpg,42.3768624,-83.07770529999999,"(near) 8359 Woodward Avenue, Detroit, MI",Virginia Park,,DETROIT MURAL #0617,Julien de Casabianca,2018
18,https://static1.squarespace.com/static/5ab0771496e76f89eeebf997/5ca3c3e7e4966ba9b7e6f488/5b16adce88251b408d60b2c3/1556712947043/FullSizeRender-2.jpg,42.3442883,-83.07395009999999,"3714 Trumbull Street, Detroit, MI",Woodbridge,,DETROIT MURAL #0615,Jake Dwyer,2018
19,https://static1.squarespace.com/static/5ab0771496e76f89eeebf997/5ca3c3e7e4966ba9b7e6f488/5b1ffc3b352f53138bdd7076/1556712947137/FullSizeRender-3.jpg,42.3341563,-83.0514848,"1431 Washington Blvd, Detroit, MI",Downtown Detroit,,DETROIT MURAL #0614,Beverly Fishman,2018
20,https://static1.squarespace.com/static/5ab0771496e76f89eeebf997/5ca3c3e7e4966ba9b7e6f488/5b09d1ae562fa7e07bdbb187/1556712947000/FullSizeRender-4.jpg,42.36981919999999,-83.0677439,"314 East Baltimore Ave, Detroit MI",Milwaukee Junction,,DETROIT MURAL #0606,Sydney G. James,2018
21,https://static1.squarespace.com/static/5ab0771496e76f89eeebf997/5ca3c3e7e4966ba9b7e6f488/5ab94f11352f53f31f90df0f/1556712945875/FullSizeRender-5.jpg,42.337512,-83.0540166,"124 West Columbia Street, Detroit, MI",Downtown Detroit,,DETROIT MURAL #0300,WC Bevan,2018
22,https://static1.squarespace.com/static/5ab0771496e76f89eeebf997/5ca3c3e7e4966ba9b7e6f488/5ac39776f950b7917fecc922/1556712946297/FullSizeRender-6.jpg,42.3518894,-83.0793064,"1527 West Warren Ave, Detroit, MI",Woodbridge,,DETROIT MURAL #0381,Armageddon BEACHPARTY,2018
23,https://static1.squarespace.com/static/5ab0771496e76f89eeebf997/5ca3c3e7e4966ba9b7e6f488/5ae79d89575d1f30834818ae/1556712946863/IMG_6574.jpg,42.3191879,-83.0996122,"1922 Ferdinand Street, Detroit, MI",Mexicantown - Southwest Detroit,,DETROIT MURAL #0529,Unknown,Unknown
24,https://static1.squarespace.com/static/5ab0771496e76f89eeebf997/5ca3c3e7e4966ba9b7e6f488/5ae79c656d2a73cfcaf9300b/1556712946857/FullSizeRender-7.jpg,42.29523529999999,-83.131044,"9429 West Fort Street, Detroit, MI",Carbon Works,,DETROIT MURAL #0528,Freddy Diaz,Unknown
25,https://static1.squarespace.com/static/5ab0771496e76f89eeebf997/5ca3c3e7e4966ba9b7e6f488/5aba58a80e2e723b8ec75b28/1556712946006/FullSizeRender-8.jpg,42.3120386,-83.1261565,"7830 W Vernor Hwy, Detroit, Michigan",Springwells Village,,DETROIT MURAL #0326,Ellen Rutt,2017
26,https://static1.squarespace.com/static/5ab0771496e76f89eeebf997/5ca3c3e7e4966ba9b7e6f488/5ab1da1d70a6ad5d2739737b/1556712945436/Jonny-Alexander-Gratiot-Detroit-Mural-Project.jpg,42.4167906,-82.9901168,"12355 Gratiot Ave., Detroit",Detroit,,DETROIT MURAL #0039,Jonny Alexander,2017
27,https://static1.squarespace.com/static/5ab0771496e76f89eeebf997/5ca3c3e7e4966ba9b7e6f488/5abac0be562fa7acbfe5458f/1556712946132/1522188115183.jpeg,42.309335,-83.1252457,"1930 Springwells Ave, Detroit, MI",Springwells Village,,DETROIT MURAL #0351,Freddy Diaz,2017
28,https://static1.squarespace.com/static/5ab0771496e76f89eeebf997/5ca3c3e7e4966ba9b7e6f488/5b57298288251b71261d9024/1556712947230/FullSizeRender-9.jpg,42.3314717,-83.11025310000001,"5432 Michigan Avenue, Detroit, MI",Detroit,,DETROIT MURAL #0696,"Ben Hesskamp, Alan Thomas, & Teo Brant",2018
29,https://static1.squarespace.com/static/5ab0771496e76f89eeebf997/5ca3c3e7e4966ba9b7e6f488/5ab1dc14352f53170db6c7e9/1556712945528/002-Detroit-Mural-Project.jpg.jpg,42.3558986,-83.0301072,"2917 Gratiot, Detroit, MI",Detroit,,DETROIT MURAL #0027,Unknown,Unknown
30,https://static1.squarespace.com/static/5ab0771496e76f89eeebf997/5ca3c3e7e4966ba9b7e6f488/5ae79a2f6d2a73cfcaf8b265/1556712946841/FullSizeRender-10.jpg,42.329544,-83.061926,"1444 Brooklyn St Detroit, MI",Corktown,,DETROIT MURAL #0494,Shades,2017
31,https://static1.squarespace.com/static/5ab0771496e76f89eeebf997/5ca3c3e7e4966ba9b7e6f488/5ae799adf950b7f3ad183a8e/1556712946824/FullSizeRender-11.jpg,42.3203412,-83.0964637,"4424 Vernor Hwy, Detroit, MI",Mexicantown - Southwest Detroit,,DETROIT MURAL #0491,Summer In The City,2017
32,https://static1.squarespace.com/static/5ab0771496e76f89eeebf997/5ca3c3e7e4966ba9b7e6f488/5b23c624758d463f77fd5eab/1556712947160/FullSizeRender-12.jpg,42.3336814,-83.04929410000001,"35 East Grand River, Detroit, MI",Downtown Detroit,,DETROIT MURAL #0633,Willie Wayne Smith,2017
33,https://static1.squarespace.com/static/5ab0771496e76f89eeebf997/5ca3c3e7e4966ba9b7e6f488/5ae71f800e2e72dfd92f830a/1556712946768/FullSizeRender-13.jpg,42.343879,-83.0335601,The Dequindre Cut Greenway,Wayne County,,DETROIT MURAL #0471,Alex Senna,2017
34,https://static1.squarespace.com/static/5ab0771496e76f89eeebf997/5ca3c3e7e4966ba9b7e6f488/5ab1d575352f53170db5d249/1556712945215/Michael-Olszewski-Detroit-Mural-Project.jpg,42.3482662,-83.086113,"4765 14th St, Detroit, MI",Woodbridge,,DETROIT MURAL #0077,Michael Olszewski,Unknown
35,https://static1.squarespace.com/static/5ab0771496e76f89eeebf997/5ca3c3e7e4966ba9b7e6f488/5ab1d587aa4a996aad795ce7/1556712945221/Michael-Olszewski-Detroit-Mural-Project.jpg,42.3484448,-83.0862472,"2200 W Hancock St, Detroit, MI",Detroit,,DETROIT MURAL #0076,Michael Olszewski,Unknown
36,https://static1.squarespace.com/static/5ab0771496e76f89eeebf997/5ca3c3e7e4966ba9b7e6f488/5abcca4e8a922dcb2e9c7d95/1556712946210/FullSizeRender.jpg,42.346141,-83.0659826,"3736 Third Street, Detroit, MI",Midtown,,DETROIT MURAL #0366,MEGGS,2017
37,https://static1.squarespace.com/static/5ab0771496e76f89eeebf997/5ca3c3e7e4966ba9b7e6f488/5abcc9f3352f53d18626012c/1556712946199/FullSizeRender-1.jpg,42.3446191,-83.0623461,"3454 Second Ave., Detroit, MI",Midtown,,DETROIT MURAL #0363,Caratoes,2017
38,https://static1.squarespace.com/static/5ab0771496e76f89eeebf997/5ca3c3e7e4966ba9b7e6f488/5abcc9db575d1fb78e073f4b/1556712946194/FullSizeRender-2.jpg,42.3446191,-83.0623461,"3454 Second Ave., Detroit, MI",Midtown,,DETROIT MURAL #0365,Christopher Konecki,2017
39,https://static1.squarespace.com/static/5ab0771496e76f89eeebf997/5ca3c3e7e4966ba9b7e6f488/5aba9b28562fa7dfaedf0815/1556712946059/FullSizeRender-3.jpg,42.3041304,-83.1218555,"1227 Springwells Street, Detroit, MI",Detroit,,DETROIT MURAL #0337,Freddy Diaz & MEGGS,2017
40,https://static1.squarespace.com/static/5ab0771496e76f89eeebf997/5ca3c3e7e4966ba9b7e6f488/5ab1dc2e03ce647150ffcae7/1556712945534/WC-Bevan-2017-Michigan-Detroit-Mural-Project.jpg.jpg,42.331086,-83.089776,"3363 Michigan Ave., Detroit",Mexicantown - Southwest Detroit,,DETROIT MURAL #0026,WC Bevan,2017
41,https://static1.squarespace.com/static/5ab0771496e76f89eeebf997/5ca3c3e7e4966ba9b7e6f488/5aeffbc4352f535b34efbf37/1556712946947/FullSizeRender-4.jpg,42.35807,-83.000053,"7952 Kercheval Ave, Detroit, MI",West Village,,DETROIT MURAL #0585,Arlin Graff,2017
42,https://static1.squarespace.com/static/5ab0771496e76f89eeebf997/5ca3c3e7e4966ba9b7e6f488/5ae85613575d1f30835e8ccd/1556712946917/FullSizeRender-5.jpg,42.3352051,-83.04911709999999,"1500 Woodward Avenue, Detroit, MI",Woodward Ave,,DETROIT MURAL #0578,Kelsey Montage,2017
43,https://static1.squarespace.com/static/5ab0771496e76f89eeebf997/5ca3c3e7e4966ba9b7e6f488/5b52ee50aa4a995f7a657127/1556712947224/FullSizeRender-6.jpg,42.4295619,-83.22920529999999,"19031 West 7 Mile Road, Detroit, MI",Detroit,,DETROIT MURAL #0695,Summer In The City,2017
44,https://static1.squarespace.com/static/5ab0771496e76f89eeebf997/5ca3c3e7e4966ba9b7e6f488/5b16ae38aa4a99890c60304f/1556712947126/FullSizeRender-7.jpg,42.40151480000001,-83.1405331,"15111 Livernois Avenue, Detroit, MI",Detroit,,DETROIT MURAL #0629,Rensone,2017
45,https://static1.squarespace.com/static/5ab0771496e76f89eeebf997/5ca3c3e7e4966ba9b7e6f488/5acabd04575d1fd3934f2451/1556712946619/FullSizeRender-8.jpg,42.3942484,-82.9613296,"14114 East Warren Avenue, Detroit, MI",Detroit,,DETROIT MURAL #0436,Summer In The City,2017
46,https://static1.squarespace.com/static/5ab0771496e76f89eeebf997/5ca3c3e7e4966ba9b7e6f488/5acab257f950b7425215c4bb/1556712946568/FullSizeRender-9.jpg,42.370343,-83.097242,"1984 West Euclid Street, Detroit, MI",Virginia Park,,DETROIT MURAL #0428,Summer in the City,2017
47,https://static1.squarespace.com/static/5ab0771496e76f89eeebf997/5ca3c3e7e4966ba9b7e6f488/5b0f3f0d2b6a28f41d1bbe1a/1556712947037/FullSizeRender-10.jpg,42.354625,-83.080478,"5233 Trumbull Street, Detroit MI",Woodbridge,,DETROIT MURAL #0609,Sydney Brack and Sam Albaugh,2017
48,https://static1.squarespace.com/static/5ab0771496e76f89eeebf997/5ca3c3e7e4966ba9b7e6f488/5abccb4f0e2e72e0bad26222/1556712946248/1524145683270.jpeg,42.363101,-82.987264,"9300 Kercheval Ave., Detroit, MI",English Village,,DETROIT MURAL #0373,WC Bevan,2017
49,https://static1.squarespace.com/static/5ab0771496e76f89eeebf997/5ca3c3e7e4966ba9b7e6f488/5abcc97c8a922dcb2e9c69c0/1556712946183/FullSizeRender.jpg,42.3503062,-83.06176769999999,"80 West Alexandrine Street, Detroit, MI",Cass Corridor,,DETROIT MURAL #0361,Anthony Lee,2017
50,https://static1.squarespace.com/static/5ab0771496e76f89eeebf997/5ca3c3e7e4966ba9b7e6f488/5b0c12fc562fa7e07b14488f/1556712947030/IMAGE.JPG,42.350948,-83.0660455,"511 West Canfield Street, Detroit, MI",Midtown,,DETROIT MURAL #0613,Kevin Joy,2017
51,https://static1.squarespace.com/static/5ab0771496e76f89eeebf997/5ca3c3e7e4966ba9b7e6f488/5ab94e80575d1f05f55af1ec/1556712945864/FullSizeRender-12.jpg,42.36981919999999,-83.0677439,"314 East Baltimore Ave, Detroit, MI (Alley behind building)",Milwaukee Junction,,DETROIT MURAL #0298,Rich Ayers,2017
52,https://static1.squarespace.com/static/5ab0771496e76f89eeebf997/5ca3c3e7e4966ba9b7e6f488/5ab90eb2aa4a99a97182690d/1556712945778/FFTY-2017-Detroit-Mural-Project.jpg,42.406687,-83.223764,"18660 Bretton Drive, Detroit, MI",North Rosedale Park,,DETROIT MURAL #0283,FFTY,2017
53,https://static1.squarespace.com/static/5ab0771496e76f89eeebf997/5ca3c3e7e4966ba9b7e6f488/5ab90e9688251b9c2427ba92/1559750236253/Tylonn-Sawyer-2017-Detroit-Mural-Project.jpg,42.3787792,-83.086235,"8838 Third Ave, Detroit, MI",Virginia Park,,DETROIT MURAL #0282,Tylonn Sawyer,2017
54,https://static1.squarespace.com/static/5ab0771496e76f89eeebf997/5ca3c3e7e4966ba9b7e6f488/5ab90e5df950b759a8077926/1559750256108/FullSizeRender.jpg,42.386533,-83.0731993,"9131 Oakland Ave, Detroit, MI",North End,,DETROIT MURAL #0281,Julian Spradlin,2017
55,https://static1.squarespace.com/static/5ab0771496e76f89eeebf997/5ca3c3e7e4966ba9b7e6f488/5ab1dc0503ce647150ffc553/1559750275191/Rashaun-Rucker-2017-Detroit-Mural-Project.jpg.jpg,42.3503858,-83.032823,"2200 Hunt St, Detroit, MI",McDougall - Hunt,,DETROIT MURAL #0218,Rashaun Rucker,2017
56,https://static1.squarespace.com/static/5ab0771496e76f89eeebf997/5ca3c3e7e4966ba9b7e6f488/5ab1d51eaa4a996aad794bf0/1559750290387/IMAGE.JPG,42.343879,-83.0335601,"The Dequindre Cut Greenway, Detroit, MI",Wayne County,,DETROIT MURAL #0081,Unknown,2017
57,https://static1.squarespace.com/static/5ab0771496e76f89eeebf997/5ca3c3e7e4966ba9b7e6f488/5ab1d59d1ae6cfb57c6c2101/1559750307432/Michael-Olszewski-2017-Detroit-Mural-Project.jpg,42.34798,-83.08655999999999,"4756 Grand River, Detroit",Woodbridge,,DETROIT MURAL #0075,Michael Olszewski,2017
58,https://static1.squarespace.com/static/5ab0771496e76f89eeebf997/5ca3c3e7e4966ba9b7e6f488/5ab1d62870a6ad5d2738d331/1559750323001/tumblr_ouswaa1SjQ1w75qkio1_1280.jpg,42.36583359999999,-83.07751480000002,"6331 Third Street, Detroit, MI",Wayne State,,DETROIT MURAL #0071,WC Bevan,2017
59,https://static1.squarespace.com/static/5ab0771496e76f89eeebf997/5ca3c3e7e4966ba9b7e6f488/5b572a6603ce642b5e2b1e35/1557315761343/FullSizeRender-2.jpg,42.348733,-83.03856499999999,"1562 Alfred St, Detroit, MI",Eastern Market,,DETROIT MURAL #0698,Tony WHLGN,2018
60,https://static1.squarespace.com/static/5ab0771496e76f89eeebf997/5ca3c3e7e4966ba9b7e6f488/5b572a878a922dbc8509a20f/1557315761348/FullSizeRender.jpg,42.3469229,-83.038946,"1482 Adelaide Street, Detroit, MI",Eastern Market,,DETROIT MURAL #0670,Marlo Broughton,2018
61,https://static1.squarespace.com/static/5ab0771496e76f89eeebf997/5ca3c3e7e4966ba9b7e6f488/5b572ac2562fa765b769039b/1557315761353/FullSizeRender-1.jpg,42.3493661,-83.0347329,"2045 Gratiot Avenue, Detroit, MI",Eastern Market,,DETROIT MURAL #0677,Sheefy McFly,2018
62,https://static1.squarespace.com/static/5ab0771496e76f89eeebf997/5ca3c3e7e4966ba9b7e6f488/5b2d488e1ae6cfd5a34ec773/1557315761337/FullSizeRender-8.jpg,42.3491815,-83.0419692,"2934 Russell Street, Detroit, MI",Eastern Market,,DETROIT MURAL #0691,Pat Perry,2018
63,https://static1.squarespace.com/static/5ab0771496e76f89eeebf997/5ca3c3e7e4966ba9b7e6f488/5ab93f6b758d46cb551de2dc/1557315761217/Arlin-Graff-2017-Detroit-Mural-Project.jpg,42.342042,-83.039411,"1314 Gratiot Ave, Detroit, MI",Lafayette Park,,DETROIT MURAL #0284,Arlin Graff,2017
64,https://static1.squarespace.com/static/5ab0771496e76f89eeebf997/5ca3c3e7e4966ba9b7e6f488/5ab93fa388251b547896b6ac/1557315761229/Laura-Finlay-2017-Detroit-Mural-Project.JPG,42.348733,-83.03856499999999,"1562 Alfred St, Detroit, MI",Eastern Market,,DETROIT MURAL #0286,Laura Finlay,2017
65,https://static1.squarespace.com/static/5ab0771496e76f89eeebf997/5ca3c3e7e4966ba9b7e6f488/5ab93f86352f53bd005d0785/1559746937639/Tati-Suarez-2017-Detroit-Mural-Project.jpg,42.3490688,-83.0384029,"2799 Orleans St Detroit, MI",Eastern Market,,DETROIT MURAL #0285,Tatiana Suarez,2017
66,https://static1.squarespace.com/static/5ab0771496e76f89eeebf997/5ca3c3e7e4966ba9b7e6f488/5ab90e24575d1fd33701f1e5/1559746957646/Shades-2017-Detroit-Mural-Project.JPG,42.3474994,-83.0416315,"2739 Russell St (Rear), Detroit",Eastern Market,,DETROIT MURAL #0279,Shades,2017
67,https://static1.squarespace.com/static/5ab0771496e76f89eeebf997/5ca3c3e7e4966ba9b7e6f488/5ab90e08352f53cd311f46c3/1559746990736/Denial-2017-Detroit-Mural-Project.jpg,42.3470741,-83.04129800000001,"2719 Russell St, Detroit, MI 48207",Eastern Market,,DETROIT MURAL #0278,Denial,2017
68,https://static1.squarespace.com/static/5ab0771496e76f89eeebf997/5ca3c3e7e4966ba9b7e6f488/5ab90deb562fa76d37251a3d/1559747010778/BMike-Rick-Williams-2017-Detroit-Mural-Project.jpg,42.347839,-83.03772599999999,"1573 Adelaide St, Detroit, MI",Eastern Market,,DETROIT MURAL #0277,BMike & Rick Williams,2017
69,https://static1.squarespace.com/static/5ab0771496e76f89eeebf997/5ca3c3e7e4966ba9b7e6f488/5ab90e41758d460c889f6b70/1559747105058/IMAGE.JPG,42.3464311,-83.0407946,"2611 Russell St, Detroit, MI",Eastern Market,,DETROIT MURAL #0280,Tavar Zawacki,2017
70,https://static1.squarespace.com/static/5ab0771496e76f89eeebf997/5ca3c3e7e4966ba9b7e6f488/5ab90dc92b6a28bbf5bd89ca/1559747143400/Mary-Iverson-2017-Detroit-Mural-Project.jpg,42.348692,-83.03868399999999,"1560 Alfred St, Detroit, MI (parking lot)",Eastern Market,,DETROIT MURAL #0276,Mary Iverson,2017
71,https://static1.squarespace.com/static/5ab0771496e76f89eeebf997/5ca3c3e7e4966ba9b7e6f488/5ab90db0f950b759a8074e53/1559747164760/Camilo-Pardo-2017-Detroit-Mural-Project.jpg,42.3489539,-83.0392609,"1535 Alfred St, Detroit, MI",Eastern Market,,DETROIT MURAL #0275,Camilo Pardo,2017
72,https://static1.squarespace.com/static/5ab0771496e76f89eeebf997/5ca3c3e7e4966ba9b7e6f488/5ab90d3aaa4a99a971820c0f/1559747185917/Anthony-Lee-Eastern-Market-2017-Detroit-Mural-Project.JPG,42.3491016,-83.0383365,"1807 Alfred St, Detroit, MI (alley)",Eastern Market,,DETROIT MURAL #0272,Anthony Lee,2017
73,https://static1.squarespace.com/static/5ab0771496e76f89eeebf997/5ca3c3e7e4966ba9b7e6f488/5ab90d1f8a922da0c50fd6d0/1559747203079/Shaini-Kasztelan-Heidi-Barlow-2017-Detroit-Mural-Project.jpg,42.3491016,-83.0383365,"1807 Alfred St, Detroit, MI",Eastern Market,,DETROIT MURAL #0271,Shaini Kasztelan & Heidi Barlow,2017
74,https://static1.squarespace.com/static/5ab0771496e76f89eeebf997/5ca3c3e7e4966ba9b7e6f488/5ab90d6b352f53cd311f1e8d/1559747218505/HOXXOH-Brian-Lacey-2017-Detroit-Mural-Project.jpg,42.3491016,-83.0383365,"1807 Alfred St, Detroit, MI (alley)",Eastern Market,,DETROIT MURAL #0273,HOXXOH & Brian Lacey,2017
75,https://static1.squarespace.com/static/5ab0771496e76f89eeebf997/5ca3c3e7e4966ba9b7e6f488/5ab90cd588251b9c24275088/1559747238753/HOXXOH-2017-Detroit-Mural-Project.jpg,42.3535266,-83.0420426,"1544 Mack Ave, Detroit, MI",Forest Park,,DETROIT MURAL #0269,HOXXOH,2017
76,https://static1.squarespace.com/static/5ab0771496e76f89eeebf997/5ca3c3e7e4966ba9b7e6f488/5ab90cfa88251b9c242757d1/1559747254388/Sydney-G-James-2017-Detroit-Mural-Project.jpg,42.3506881,-83.0421448,"1461 Erskine St, Detroit, MI",Eastern Market,,DETROIT MURAL #0270,Sydney G. James & Askew,2017
77,https://static1.squarespace.com/static/5ab0771496e76f89eeebf997/5ca3c3e7e4966ba9b7e6f488/5ab90c7c8a922da0c50faf20/1559747272799/FFTY-2017-Detroit-Mural-Project.jpg,42.3506881,-83.0421448,"1461 Erskine St, Detroit, MI",Eastern Market,,DETROIT MURAL #0266,Sydney G. James & Askew,2017
78,https://static1.squarespace.com/static/5ab0771496e76f89eeebf997/5ca3c3e7e4966ba9b7e6f488/5ab90cb988251b9c242748a9/1559747478446/FullSizeRender.jpg,42.353951,-83.04083,"1820 Mack Ave, Detroit, MI",Forest Park,,DETROIT MURAL #0268,Jesse Kassel,2017
79,https://static1.squarespace.com/static/5ab0771496e76f89eeebf997/5ca3c3e7e4966ba9b7e6f488/5ab90bd903ce644cf63583ca/1559747510331/Jeremiah-Britton.JPG,42.349075,-83.03529999999999,"2000 Division St, Detroit, MI",Eastern Market,,DETROIT MURAL #0262,Jeremiah Britton,2017
80,https://static1.squarespace.com/static/5ab0771496e76f89eeebf997/5ca3c3e7e4966ba9b7e6f488/5ab90bfe03ce644cf6358bef/1559747532243/LunchMoney-WeWork-2017-Detroit-Mural-Project.jpg,42.349748,-83.0349209,"2715 Saint Aubin Street, Detroit, MI",Eastern Market,,DETROIT MURAL #0263,Lunch Money,2017
81,https://static1.squarespace.com/static/5ab0771496e76f89eeebf997/5ca3c3e7e4966ba9b7e6f488/5ac39b61758d46fd8ce43da6/1559747546972/Bask-Matter-2017-Detroit-Mural-Project.jpg,42.346534,-83.04144099999999,"1328 Division Street, Detroit, MI",Eastern Market,,DETROIT MURAL #0257,Bask,2017
82,https://static1.squarespace.com/static/5ab0771496e76f89eeebf997/5ca3c3e7e4966ba9b7e6f488/5ab90a3d575d1f97606c661b/1559747566006/Sharktoof-2017-Detroit-Mural-Project.jpg,42.3498909,-83.0334943,"2158 Gratiot Avenue, Detroit, MI",Lafayette Park,,DETROIT MURAL #0258,SharkToof,2017
83,https://static1.squarespace.com/static/5ab0771496e76f89eeebf997/5ca3c3e7e4966ba9b7e6f488/5ab90987f950b7207d374422/1559747582290/Lauren-Napolitano-2017-Detroit-Mural-Project.jpg,42.3509335,-83.0323717,"2245 Hunt St, Detroit, MI (parking lot)",McDougall - Hunt,,DETROIT MURAL #0256,Lauren Napolitano,2017
84,https://static1.squarespace.com/static/5ab0771496e76f89eeebf997/5ca3c3e7e4966ba9b7e6f488/5ab909ccf950b7207d375228/1559747606112/Jeff-Gress-2017-Detroit-Mural-Project.jpg,42.3498909,-83.0334943,"2158 Gratiot Avenue, Detroit, MI",Lafayette Park,,DETROIT MURAL #0255,Jeff Gress,2017
85,https://static1.squarespace.com/static/5ab0771496e76f89eeebf997/5ca3c3e7e4966ba9b7e6f488/5ab1db9a0e2e72081e5fc791/1559747627988/Fel3000ft-Malt-2017-Detroit-Mural-Project.jpg,42.3464311,-83.0407946,"2611 Russell St, Detroit, MI",Eastern Market,,DETROIT MURAL #0234,Fel3000ft and Malt,2017
86,https://static1.squarespace.com/static/5ab0771496e76f89eeebf997/5ca3c3e7e4966ba9b7e6f488/5ab1dbcb575d1f9478b609ec/1559747654217/Woes-Kevin-Lyons.jpg,42.3516049,-83.0346632,"2151 Brewster St, Detroit, MI",Eastern Market,,DETROIT MURAL #0231,Woes & Kevin Lyons,2017
87,https://static1.squarespace.com/static/5ab0771496e76f89eeebf997/5ca3c3e7e4966ba9b7e6f488/5ab1dbb303ce647150ffb8cb/1559747674825/FullSizeRender-1.jpg,42.3464261,-83.0375641,"1530 Winder St, Detroit, MI",Eastern Market,,DETROIT MURAL #0232,WC Bevan,2017
88,https://static1.squarespace.com/static/5ab0771496e76f89eeebf997/5ca3c3e7e4966ba9b7e6f488/5ab1db80352f53170db6b1f0/1559747702153/FullSizeRender-2.jpg,42.3464261,-83.0375641,"1530 Winder St, Detroit, MI",Eastern Market,,DETROIT MURAL #0233,MEGGS,2017
89,https://static1.squarespace.com/static/5ab0771496e76f89eeebf997/5ca3c3e7e4966ba9b7e6f488/5ab1c5f370a6ad5d27363d2d/1559747731297/Case-Maclaim-2017-Detroit-Mural-Project.jpg.jpg,42.3460483,-83.0382982,"2453 Riopelle St, Detroit, MI",Eastern Market,,DETROIT MURAL #0230,Case Maclaim,2017
90,https://static1.squarespace.com/static/5ab0771496e76f89eeebf997/5ca3c3e7e4966ba9b7e6f488/5ab1c824f950b76484f6fe45/1559747746099/Ouizi-2017-Detroit-Mural-Project.jpg,42.348234,-83.037463,"2628 Orleans Street, Detroit, MI",Eastern Market,,DETROIT MURAL #0120,Ouizi,2017
91,https://static1.squarespace.com/static/5ab0771496e76f89eeebf997/5ca3c3e7e4966ba9b7e6f488/5ab1c8126d2a73b789dbc480/1559747764299/James-Bullough-2017-Detroit-Mural-Project.jpg,42.348097,-83.038014,"2633 Orleans Street, Detroit, MI",Eastern Market,,DETROIT MURAL #0119,James Bullough,2017
92,https://static1.squarespace.com/static/5ab0771496e76f89eeebf997/5ca3c3e7e4966ba9b7e6f488/5ab1c4418a922d21ca7e664b/1559747784606/tumblr_osbgz6AJqe1w75qkio1_1280.jpg,42.3493547,-83.04147379999999,"1450 Wilkins St, Detroit, MI",Eastern Market,,DETROIT MURAL #0101,OUIZI and Michelle Tanguay,2017
93,https://static1.squarespace.com/static/5ab0771496e76f89eeebf997/5ca3c3e7e4966ba9b7e6f488/5ab1c9131ae6cfb57c6a220e/1559747800814/FullSizeRender-3.jpg,42.3478461,-83.0394931,"1500 Division Street, Detroit, MI",Eastern Market,,DETROIT MURAL #0186,SharkToof,2017
94,https://static1.squarespace.com/static/5ab0771496e76f89eeebf997/5ca3c3e7e4966ba9b7e6f488/5ab1d07a6d2a73b789dd1dcc/1559747816501/tumblr_oto883rjSS1w75qkio1_r1_1280.jpg,42.3474994,-83.0416315,"2739 Russell St (Rear), Detroit",Eastern Market,,DETROIT MURAL #0225,Nivek Monet,2017
95,https://static1.squarespace.com/static/5ab0771496e76f89eeebf997/5ca3c3e7e4966ba9b7e6f488/5ab1cfe50e2e72081e5e00fc/1559747856130/tumblr_oto833Vb1K1w75qkio1_r1_1280.jpg,42.3497953,-83.03889029999999,"2899 Orleans Street, Detroit, MI",Eastern Market,,DETROIT MURAL #0214,Greg Mike,2016
96,https://static1.squarespace.com/static/5ab0771496e76f89eeebf997/5ca3c3e7e4966ba9b7e6f488/5ab1c9641ae6cfb57c6a2e98/1559747875455/1521600877248.jpeg,42.34837890000001,-83.0376203,"Cutters Bar & Grill, Detroit, MI",Eastern Market,,DETROIT MURAL #0226,Sydney G. James,2016
97,https://static1.squarespace.com/static/5ab0771496e76f89eeebf997/5ca3c3e7e4966ba9b7e6f488/5ab1d0ab2b6a285eb10ed94e/1559748030461/tumblr_otogd5zRrM1w75qkio1_1280.jpg,42.3491815,-83.0419692,"2934 Russell St, Detroit, MI",Eastern Market,,DETROIT MURAL #0215,Ellen Rutt and Jesse Kassel,2016
98,https://static1.squarespace.com/static/5ab0771496e76f89eeebf997/5ca3c3e7e4966ba9b7e6f488/5ab1ccd62b6a285eb10e3bf6/1559748050428/tumblr_oto80uqrJt1w75qkio1_1280.jpg,42.351012,-83.035685,"2903 Saint Aubin Street, Detroit, MI",Eastern Market,,DETROIT MURAL #0192,Apexer,2016
99,https://static1.squarespace.com/static/5ab0771496e76f89eeebf997/5ca3c3e7e4966ba9b7e6f488/5ab1c8aa8a922d21ca7f27ed/1559748075328/1521600703475.jpeg,42.3475589,-83.03857099999999,"1525 Adelaide Street, Detroit, MI",Eastern Market,,DETROIT MURAL #0184,Zak Meers,2016
100,https://static1.squarespace.com/static/5ab0771496e76f89eeebf997/5ca3c3e7e4966ba9b7e6f488/5ab1c8eb8a922d21ca7f3248/1559748097624/tumblr_oto7w3gB2J1w75qkio1_1280.jpg,42.3471888,-83.03898579999999,"2600 Riopelle Street, Detroit, MI",Eastern Market,,DETROIT MURAL #0182,Zak Meers,2016
101,https://static1.squarespace.com/static/5ab0771496e76f89eeebf997/5ca3c3e7e4966ba9b7e6f488/5ab1c8ce758d46f2165dd4d4/1559748113644/tumblr_oto7vvAFcY1w75qkio1_r1_1280.jpg,42.3471888,-83.03898579999999,"2600 Riopelle Street, Detroit, MI",Eastern Market,,DETROIT MURAL #0181,Zak Meers,2016
102,https://static1.squarespace.com/static/5ab0771496e76f89eeebf997/5ca3c3e7e4966ba9b7e6f488/5ab1c8be03ce647150fcc8b7/1559748152856/FullSizeRender.jpg,42.3455528,-83.0363531,"1798 Jay St, Detroit, MI",Lafayette Park,,DETROIT MURAL #0180,"MEGGS, Taylor White, & Lauren Ys",2016
103,https://static1.squarespace.com/static/5ab0771496e76f89eeebf997/5ca3c3e7e4966ba9b7e6f488/5ab1c53eaa4a996aad76b800/1559748195155/1521599819242.jpeg,42.3451662,-83.0376656,"1548 E Fisher Service Dr, Detroit, MI",Lafayette Park,,DETROIT MURAL #0170,Shades,2016
104,https://static1.squarespace.com/static/5ab0771496e76f89eeebf997/5ca3c3e7e4966ba9b7e6f488/5ab1c9b60e2e72081e5d0066/1559748219680/1521600955032.jpeg,42.3483627,-83.037627,"2638 Orleans Street, Detroit, MI",Eastern Market,,DETROIT MURAL #0163,Tony Rave,2016
105,https://static1.squarespace.com/static/5ab0771496e76f89eeebf997/5ca3c3e7e4966ba9b7e6f488/5ab1c983575d1f9478b33785/1559748235474/1521600907725.jpeg,42.3483627,-83.037627,"2638 Orleans, Detroit, MI",Eastern Market,,DETROIT MURAL #0161,Tylonn Sawyer,2016
106,https://static1.squarespace.com/static/5ab0771496e76f89eeebf997/5ca3c3e7e4966ba9b7e6f488/5ab1ca910e2e72081e5d25f1/1559748252269/tumblr_oto8alDrbx1w75qkio1_1280.jpg,42.3455867,-83.0366621,"1544 Gratiot Ave, Detroit, MI",Lafayette Park,,DETROIT MURAL #0154,Apexer,2016
107,https://static1.squarespace.com/static/5ab0771496e76f89eeebf997/5ca3c3e7e4966ba9b7e6f488/5ab1caa51ae6cfb57c6a65cd/1559748268869/tumblr_oto8baE2jJ1w75qkio1_1280.jpg,42.3455867,-83.0366621,"1544 Gratiot Ave, Detroit, MI",Lafayette Park,,DETROIT MURAL #0152,Slick,2016
108,https://static1.squarespace.com/static/5ab0771496e76f89eeebf997/5ca3c3e7e4966ba9b7e6f488/5ab1cbc90e2e72081e5d5a6b/1559748285508/tumblr_oto8r9pvAj1w75qkio1_r1_1280.jpg,42.3464311,-83.0407946,"2611 Russell Street, Detroit, MI",Eastern Market,,DETROIT MURAL #0148,Joseph Konert,2016
109,https://static1.squarespace.com/static/5ab0771496e76f89eeebf997/5ca3c3e7e4966ba9b7e6f488/5ab1cd96758d46f2165e9b61/1559748301783/tumblr_oto82fQGi31w75qkio1_r1_1280.jpg,42.3474994,-83.0416315,"2739 Russell Street, Detroit, MI",Eastern Market,,DETROIT MURAL #0144,Ben Saginaw,2016
110,https://static1.squarespace.com/static/5ab0771496e76f89eeebf997/5ca3c3e7e4966ba9b7e6f488/5ab1cf431ae6cfb57c6b251f/1559748318117/tumblr_oto88moeVa1w75qkio1_1280.jpg,42.3469898,-83.0414868,"1353 Division Street, Detroit, MI",Eastern Market,,DETROIT MURAL #0138,Shaina Kasztelan & Heidi Barlow,2016
111,https://static1.squarespace.com/static/5ab0771496e76f89eeebf997/5ca3c3e7e4966ba9b7e6f488/5ab1c7cbf950b76484f6eee0/1559748334681/1521600468853.jpeg,42.3465894,-83.03867590000002,"1489 Winder Street, Detroit, MI",Eastern Market,,DETROIT MURAL #0115,Ghost Beard and Patch Whisky,2016
112,https://static1.squarespace.com/static/5ab0771496e76f89eeebf997/5ca3c3e7e4966ba9b7e6f488/5ab1c7b7352f53170db3a31a/1559748350631/1521600451202.jpeg,42.3464822,-83.0381725,"2478 Riopelle Street, Detroit, MI",Eastern Market,,DETROIT MURAL #0114,Felipe Pantone,2016
113,https://static1.squarespace.com/static/5ab0771496e76f89eeebf997/5ca3c3e7e4966ba9b7e6f488/5ab1c741575d1f9478b2d620/1559748368253/1521600332142.jpeg,42.3467706,-83.0368836,"2418 Orleans Street, Detroit, MI",Eastern Market,,DETROIT MURAL #0109,Hebru Brantley,2016
114,https://static1.squarespace.com/static/5ab0771496e76f89eeebf997/5ca3c3e7e4966ba9b7e6f488/5ab1c9751ae6cfb57c6a313d/1559748386953/1521600893611.jpeg,42.3485464,-83.03781459999999,"1801 Division Street, Detroit, MI",Eastern Market,,DETROIT MURAL #0162,Mr. Jago & Xenx,2016
115,https://static1.squarespace.com/static/5ab0771496e76f89eeebf997/5ca3c3e7e4966ba9b7e6f488/5ab1ca3003ce647150fd0739/1559748407508/Slick-2016-Detroit-Mural-Project.jpg,42.349075,-83.03529999999999,"2000 Division Street, Detroit, MI",Eastern Market,,DETROIT MURAL #0227,Slick,2016
116,https://static1.squarespace.com/static/5ab0771496e76f89eeebf997/5ca3c3e7e4966ba9b7e6f488/5ab1ca86575d1f9478b3649c/1559748583673/Ghost-Beard-Patch-Whisky-2016-Detroit-Mural-Project.jpg,42.3455867,-83.0366621,"1544 Gratiot Ave, Detroit, MI",Lafayette Park,,DETROIT MURAL #0155,Ghost Beard and Patch Whisky,2016
117,https://static1.squarespace.com/static/5ab0771496e76f89eeebf997/5ca3c3e7e4966ba9b7e6f488/5ab1ca9c88251b292be99993/1559748601445/Hueman-2016-Detroit-Mural-Project.jpg,42.3417368,-83.0397492,"2099 Rivard Street, Detroit, MI",Lafayette Park,,DETROIT MURAL #0153,Hueman,2016
118,https://static1.squarespace.com/static/5ab0771496e76f89eeebf997/5ca3c3e7e4966ba9b7e6f488/5ab1cbb988251b292be9c8f5/1559748614623/Detroit-Mural-Project-2016-Cey-Adams.jpg,42.3451662,-83.0376656,"1548 E Fisher Service Dr, Detroit, MI",Lafayette Park,,DETROIT MURAL #0149,Cey Adams,2016
119,https://static1.squarespace.com/static/5ab0771496e76f89eeebf997/5ca3c3e7e4966ba9b7e6f488/5ab1cf2a758d46f2165ede96/1559748656824/Detroit-Mural-Project-2016-Sheefy-McFly.jpg,42.3470741,-83.04129800000001,"2719 Russell Street, Detroit, MI",Eastern Market,,DETROIT MURAL #0139,Sheefy McFly,2016
120,https://static1.squarespace.com/static/5ab0771496e76f89eeebf997/5ca3c3e7e4966ba9b7e6f488/5ab1cf0e352f53170db4d1bc/1559748671827/Detroit-Mural-Project-2016-Clifton-Perry.jpg,42.34844500000001,-83.03955599999999,"1500 Alfred Street, Detroit, MI",Eastern Market,,DETROIT MURAL #0140,Clifton Perry,2016
121,https://static1.squarespace.com/static/5ab0771496e76f89eeebf997/5ca3c3e7e4966ba9b7e6f488/5ab1cfb66d2a73b789dcfe53/1559748690354/Detroit-Mural-Project-2016-Dabls.jpg,42.3509097,-83.0369183,"1950 Wilkins Street, Detroit, MI",Eastern Market,,DETROIT MURAL #0137,Olayami Dabls,2016
122,https://static1.squarespace.com/static/5ab0771496e76f89eeebf997/5ca3c3e7e4966ba9b7e6f488/5ab94175aa4a9968418e4983/1559748712481/Detroit-Mural-Project-2016-Apexer.jpg,42.3471609,-83.03643129999999,"1841 Gratiot Avenue, Detroit, MI",Eastern Market,,DETROIT MURAL #0295,Apexer,2016
123,https://static1.squarespace.com/static/5ab0771496e76f89eeebf997/5ca3c3e7e4966ba9b7e6f488/5ab941128a922d97f510b42b/1559748730070/Detroit-Mural-Project-2016-Kirstin-Farr.jpg,42.3424059,-83.038179,"2011 Russell St, Detroit, MI",Lafayette Park,,DETROIT MURAL #0293,Kirstin Farr,2016
124,https://static1.squarespace.com/static/5ab0771496e76f89eeebf997/5ca3c3e7e4966ba9b7e6f488/5ab940fa1ae6cf23575e5ce6/1559748747717/Detroit-Mural-Project-2016-Pixel-Pancho.jpg,42.342852,-83.038409,"2105 Russell St, Detroit, MI",Lafayette Park,,DETROIT MURAL #0292,Pixel Pancho,2016
125,https://static1.squarespace.com/static/5ab0771496e76f89eeebf997/5ca3c3e7e4966ba9b7e6f488/5ab940480e2e72d3f74bc63e/1559748771253/Detroit-Mural-Project-2016-Marka27.JPG,42.3452819,-83.0375103,"1485 Gratiot Ave, Detroit, MI",Lafayette Park,,DETROIT MURAL #0291,Marka27,2016
126,https://static1.squarespace.com/static/5ab0771496e76f89eeebf997/5ca3c3e7e4966ba9b7e6f488/5ab9401bf950b714572ca551/1559748790037/Detroit-Mural-Project-2016-Kevin-Lyons.jpg,42.3488927,-83.0346105,"2008 Gratiot Avenue, Detroit, MI",Lafayette Park,,DETROIT MURAL #0289,Kevin Lyons,2016
127,https://static1.squarespace.com/static/5ab0771496e76f89eeebf997/5ca3c3e7e4966ba9b7e6f488/5ab90c9f70a6ad8579a01a5b/1559748807368/Detroit-Mural-Project-2016-1010.jpg,42.3533148,-83.04119899999999,"3555 Orleans St, Detroit, MI",Detroit,,DETROIT MURAL #0267,1010,2016
128,https://static1.squarespace.com/static/5ab0771496e76f89eeebf997/5ca3c3e7e4966ba9b7e6f488/5ab90c5b88251b9c24272dd8/1559748825357/Detroit-Mural-Project-2016-Chris-Saunders.jpg,42.3526576,-83.04075449999999,"3500 Orleans St, Detroit, MI",Eastern Market,,DETROIT MURAL #0265,Chris Saunders,2016
129,https://static1.squarespace.com/static/5ab0771496e76f89eeebf997/5ca3c3e7e4966ba9b7e6f488/5ab90b62562fa76d37247bf6/1559748839031/Detroit-Mural-Project-Year-Taylor-White-Dalek.JPG,42.3494525,-83.0344179,"2625 St Aubin St, Detroit, MI",Eastern Market,,DETROIT MURAL #0259,Taylor White & Dalek,2016
130,https://static1.squarespace.com/static/5ab0771496e76f89eeebf997/5ca3c3e7e4966ba9b7e6f488/5abcc89070a6ad9323455ee5/1559748857179/Detroit-Mural-Project-Lauren-Harrington-2016.jpg,42.3448258,-83.03594149999999,"1799 Antietam Ave, Detroit, MI",Lafayette Park,,DETROIT MURAL #0355,Lauren Harrington,2016
131,https://static1.squarespace.com/static/5ab0771496e76f89eeebf997/5ca3c3e7e4966ba9b7e6f488/5ac3a89f0e2e722bb743e21f/1559748872436/Detroit-Mural-Project-WC-Bevan-2015.jpg,42.3459402,-83.0381902,"2469 E Fisher Service Dr, Detroit, MI",Eastern Market,,DETROIT MURAL #0406,WC Bevan,2015
132,https://static1.squarespace.com/static/5ab0771496e76f89eeebf997/5ca3c3e7e4966ba9b7e6f488/5ab1cab7575d1f9478b36c2f/1559748896317/Sintex-Danny-Brown-Detroit-Mural.jpg,42.349075,-83.03529999999999,"2000 Division St, Detroit, MI",Eastern Market,,DETROIT MURAL #0151,Sintex,2016
133,https://static1.squarespace.com/static/5ab0771496e76f89eeebf997/5ca3c3e7e4966ba9b7e6f488/5ae8576c352f5343172e2e36/1559748918751/FullSizeRender.jpg,42.342561,-83.038996,"1352 Gratiot Avenue, Detroit, MI",Lafayette Park,,DETROIT MURAL #0580,Nic Notion,2016
134,https://static1.squarespace.com/static/5ab0771496e76f89eeebf997/5ca3c3e7e4966ba9b7e6f488/5ab1c85d70a6ad5d2736a529/1559748932575/tumblr_oto7uhpjIH1w75qkio1_r1_1280.jpg,42.3465048,-83.0365478,"1543 Gratiot Ave, Detroit, MI",Eastern Market,,DETROIT MURAL #0229,Hygienic Dress League,2015
135,https://static1.squarespace.com/static/5ab0771496e76f89eeebf997/5ca3c3e7e4966ba9b7e6f488/5ab93fc7758d46cb551df8b9/1559749191259/FullSizeRender-1.jpg,42.3491815,-83.0419692,"2934 Russell Street, Detroit, MI",Eastern Market,,DETROIT MURAL #0287,MEGGS,2015
136,https://static1.squarespace.com/static/5ab0771496e76f89eeebf997/5ca3c3e7e4966ba9b7e6f488/5ab9400170a6ad454e5c8e32/1559749211151/FullSizeRender-2.jpg,42.349607,-83.03333,"2145 Hendricks St, Detroit, MI",Lafayette Park,,DETROIT MURAL #0288,Persue and Kwest,2015
137,https://static1.squarespace.com/static/5ab0771496e76f89eeebf997/5ca3c3e7e4966ba9b7e6f488/5ab1c8ff562fa7620d3186c0/1559749223942/1521600781176.jpeg,42.34818660000001,-83.03945209999999,"2712 Riopelle Street, Detroit, MI",Eastern Market,,DETROIT MURAL #0187,Eugene Carland,2015
138,https://static1.squarespace.com/static/5ab0771496e76f89eeebf997/5ca3c3e7e4966ba9b7e6f488/5ab1c884562fa7620d3172da/1559749242843/tumblr_oto7v3TYBE1w75qkio1_1280.jpg,42.3477222,-83.03810949999999,"1561 Adelaide Street, Detroit, MI",Eastern Market,,DETROIT MURAL #0179,Sydney G. James,2015
139,https://static1.squarespace.com/static/5ab0771496e76f89eeebf997/5ca3c3e7e4966ba9b7e6f488/5ab1c51288251b292be8a9ac/1559749278505/tumblr_orabiln11N1w75qkio1_1280.jpg,42.34635,-83.0409899,"1349 Adelaide St, Detroit, MI",Eastern Market,,DETROIT MURAL #0169,Hebru Brantley,2015
140,https://static1.squarespace.com/static/5ab0771496e76f89eeebf997/5ca3c3e7e4966ba9b7e6f488/5ab1ca1488251b292be981e3/1559749293776/tumblr_oto7zd49yw1w75qkio1_r1_1280.jpg,42.3488029,-83.036067,"1948 Division Street, Detroit, MI",Eastern Market,,DETROIT MURAL #0160,Kashink,2015
141,https://static1.squarespace.com/static/5ab0771496e76f89eeebf997/5ca3c3e7e4966ba9b7e6f488/5ab1ca02352f53170db40307/1559749308607/1521601035566.jpeg,42.3488188,-83.0362203,"1936 Division Street, Detroit, MI",Eastern Market,,DETROIT MURAL #0158,"Yok & Sheryo, Daek, and Fecks",2015
142,https://static1.squarespace.com/static/5ab0771496e76f89eeebf997/5ca3c3e7e4966ba9b7e6f488/5ab1cd5c88251b292bea0a1d/1559749326972/tumblr_oto81q2Rs21w75qkio1_r1_1280.jpg,42.3464311,-83.0407946,"2611 Russell Street, Detroit, MI",Eastern Market,,DETROIT MURAL #0145,Fel3000ft,2015
143,https://static1.squarespace.com/static/5ab0771496e76f89eeebf997/5ca3c3e7e4966ba9b7e6f488/5ab1c83403ce647150fcb021/1559749343502/1521600575784.jpeg,42.3477222,-83.03810949999999,"1561 Adelaide Street, Detroit, MI",Eastern Market,,DETROIT MURAL #0121,"Ghost Beard, Patch Whisky",2015
144,https://static1.squarespace.com/static/5ab0771496e76f89eeebf997/5ca3c3e7e4966ba9b7e6f488/5ab1c78403ce647150fc932a/1559749370181/1521600400285.jpeg,42.34640539999999,-83.0379674,"1516 Winder St (In Alley), Detroit, MI",Eastern Market,,DETROIT MURAL #0111,Luke Chueh,2015
145,https://static1.squarespace.com/static/5ab0771496e76f89eeebf997/5ca3c3e7e4966ba9b7e6f488/5ab1d35a562fa7620d33327d/1559749382705/tumblr_oukp0sW7wW1w75qkio1_1280.jpg,42.3417368,-83.0397492,"Near 2099 Rivard Street (in Alley), Detroit, MI",Lafayette Park,,DETROIT MURAL #0097,"Monica Canilao, Pat Perry, Ben Wolf, Nick Mann, Ouizi",2015
146,https://static1.squarespace.com/static/5ab0771496e76f89eeebf997/5ca3c3e7e4966ba9b7e6f488/5ab1c875575d1f9478b30a68/1559749100069/1521600636302.jpeg,42.3477222,-83.03810949999999,"1561 Adelaide Street, Detroit, MI",Eastern Market,,DETROIT MURAL #0178,Michelle Tanguay,2015
147,https://static1.squarespace.com/static/5ab0771496e76f89eeebf997/5ca3c3e7e4966ba9b7e6f488/5ab1c94d1ae6cfb57c6a2aca/1559749427249/Detroit-Mural-Project-Taylor-White-2015-ViranelClerard.jpg,42.349016,-83.03805100000001,"2740 Orleans Street, Detroit, MI",Eastern Market,,DETROIT MURAL #0228,Taylor White,2015
148,https://static1.squarespace.com/static/5ab0771496e76f89eeebf997/5ca3c3e7e4966ba9b7e6f488/5ab1cfa188251b292bea6724/1559749460076/Detroit-Mural-Noesgo-Woes.jpg,42.344355,-83.038879,"2336 Russell Street, Detroit, MI",Lafayette Park,,DETROIT MURAL #0213,Nosego & WOES,2015
149,https://static1.squarespace.com/static/5ab0771496e76f89eeebf997/5ca3c3e7e4966ba9b7e6f488/5ab1cf7203ce647150fde1bc/1559749472581/Detroit-Mural-Jonny-Alexander-Covered.jpg,42.3464311,-83.0407946,"2611 Russell Street, Detroit, MI",Eastern Market,,DETROIT MURAL #0212,Jonny Alexander,2015
150,https://static1.squarespace.com/static/5ab0771496e76f89eeebf997/5ca3c3e7e4966ba9b7e6f488/5ab1cde9352f53170db4a1cc/1559749491642/Detroit-Mural-Woes-Luke-Chueh.jpg,42.344369,-83.038532,"1421 Gratiot Avenue, Detroit, MI",Lafayette Park,,DETROIT MURAL #0191,WOES & Luke Chueh,2015
151,https://static1.squarespace.com/static/5ab0771496e76f89eeebf997/5ca3c3e7e4966ba9b7e6f488/5ab1c9276d2a73b789dbf3be/1559749506267/Detroit-Mural-Miss-Van-2015.jpeg,42.3480513,-83.0393277,"1501 Division Street, Detroit, MI",Eastern Market,,DETROIT MURAL #0188,Miss Van,2015
152,https://static1.squarespace.com/static/5ab0771496e76f89eeebf997/5ca3c3e7e4966ba9b7e6f488/5ab1c9c2aa4a996aad7779fa/1559749526592/Detroit-Mural-Ouizi-2015.jpg,42.348322,-83.037519,"1816 Division Street, Detroit, MI",Eastern Market,,DETROIT MURAL #0159,Ouizi,2015
153,https://static1.squarespace.com/static/5ab0771496e76f89eeebf997/5ca3c3e7e4966ba9b7e6f488/5ab1c9f42b6a285eb10dc302/1559750064114/Detroit-Mural-Sharktoof-2015.jpg,42.3488929,-83.03662659999999,"1906 Division Street, Detroit, MI",Eastern Market,,DETROIT MURAL #0156,SharkToof,2015
154,https://static1.squarespace.com/static/5ab0771496e76f89eeebf997/5ca3c3e7e4966ba9b7e6f488/5ab1c9db562fa7620d31acc0/1559749698813/Detroit-Mural-Ashew-Hannah-Stouffer.jpeg,42.348979,-83.03741099999999,"1825 Division Street, Detroit, MI",Eastern Market,,DETROIT MURAL #0157,Askew & Hannah Stouffer,2015
155,https://static1.squarespace.com/static/5ab0771496e76f89eeebf997/5ca3c3e7e4966ba9b7e6f488/5ab1cac22b6a285eb10de66f/1559749715802/Detroit-Mural-Rone-West.jpg,42.34588,-83.036541,"1550 Gratiot Avenue, Detroit, MI",Lafayette Park,,DETROIT MURAL #0150,Rone,2015
156,https://static1.squarespace.com/static/5ab0771496e76f89eeebf997/5ca3c3e7e4966ba9b7e6f488/5ab1d266562fa7620d330d40/1559749731545/Detroit-Mural-Jarus.jpg,42.349725,-83.033186,"2157 Hendricks Street, Detroit, MI",Lafayette Park,,DETROIT MURAL #0123,Jarus,2015
157,https://static1.squarespace.com/static/5ab0771496e76f89eeebf997/5ca3c3e7e4966ba9b7e6f488/5ab1d250575d1f9478b49ed9/1559749746668/Detroit-Mural-Zak-Meers.jpg,42.34976570000001,-83.0327281,"2598 Dubois Street, Detroit, MI",Lafayette Park,,DETROIT MURAL #0124,Zak Meers,2015
158,https://static1.squarespace.com/static/5ab0771496e76f89eeebf997/5ca3c3e7e4966ba9b7e6f488/5ab9418b575d1f8e3a68f24c/1559749762051/Detroit-Mural-Miss-Van.jpg,42.34179230000001,-83.0394101,"1301 Maple St, Detroit, MI",Lafayette Park,,DETROIT MURAL #0296,Miss Van,2015
159,https://static1.squarespace.com/static/5ab0771496e76f89eeebf997/5ca3c3e7e4966ba9b7e6f488/5ab9403270a6ad454e5c9ace/1559749782819/Detroit-Mural-Jeff-Soto-Maxx242.JPG,42.3452819,-83.0375103,"1485 Gratiot Ave, Detroit, MI",Lafayette Park,,DETROIT MURAL #0290,Jeff Soto and Maxx242,2015
160,https://static1.squarespace.com/static/5ab0771496e76f89eeebf997/5ca3c3e7e4966ba9b7e6f488/5ab1c849562fa7620d3167ad/1559749797530/Detroit-Mural-Marlobro-Eastern-Market.jpeg,42.3477222,-83.03810949999999,"1561 Adelaide Street, Detroit, MI",Eastern Market,,DETROIT MURAL #0122,Marlobro,2015
161,https://static1.squarespace.com/static/5ab0771496e76f89eeebf997/5ca3c3e7e4966ba9b7e6f488/5ab1c8016d2a73b789dbc141/1559749813089/Detroit-Mural-Naturel-Rick-Williams.jpeg,42.3477222,-83.03810949999999,"1561 Adelaide Street, Detroit, MI",Eastern Market,,DETROIT MURAL #0118,Naturel & Rick Williams,2015
162,https://static1.squarespace.com/static/5ab0771496e76f89eeebf997/5ca3c3e7e4966ba9b7e6f488/5ab1c7db6d2a73b789dbbaf4/1559749832881/Detroit-Mural-Kashink-Eastern-Market.jpg,42.3467118,-83.0388018,"2515 Riopelle Street, Detroit, MI",Eastern Market,,DETROIT MURAL #0116,Kashink,2015
163,https://static1.squarespace.com/static/5ab0771496e76f89eeebf997/5ca3c3e7e4966ba9b7e6f488/5ab1c774352f53170db396fa/1559749851189/Detroit-Mural-Ron-Zakrin.jpg,42.34640539999999,-83.0379674,"1516 Winder St (In Alley), Detroit, MI",Eastern Market,,DETROIT MURAL #0112,Ron Zakrin,2015
164,https://static1.squarespace.com/static/5ab0771496e76f89eeebf997/5ca3c3e7e4966ba9b7e6f488/5ab1c797352f53170db39cf7/1559749865430/Detroit-Mural-2501.jpeg,42.346555,-83.03723699999999,"1550 Winder Street, Detroit, MI",Eastern Market,,DETROIT MURAL #0113,2501,2015
165,https://static1.squarespace.com/static/5ab0771496e76f89eeebf997/5ca3c3e7e4966ba9b7e6f488/5ab90c238a922da0c50f966f/1559749880559/Detroit-Mural-Beau-Stanton-Eastern-Market.jpg,42.3533169,-83.036232,"2126 Pierce St, Detroit, MI",Eastern Market,,DETROIT MURAL #0264,Beau Stanton,2015
166,https://static1.squarespace.com/static/5ab0771496e76f89eeebf997/5ca3c3e7e4966ba9b7e6f488/5abccb0b1ae6cf7814847796/1559749894664/FullSizeRender-1.jpg,42.349551,-83.03356590000001,"2144 Gratiot Ave., Detroit, MI",Lafayette Park,,DETROIT MURAL #0372,Sintex,2014
167,https://static1.squarespace.com/static/5ab0771496e76f89eeebf997/5ca3c3e7e4966ba9b7e6f488/5abccaf6aa4a99a0ab81a680/1559749911369/FullSizeRender.jpg,42.349551,-83.03356590000001,"2144 Gratiot Ave., Detroit, MI",Lafayette Park,,DETROIT MURAL #0371,Sintex,2014
168,https://i.imgur.com/mjJSRfI.jpg,42.335615399999995,-83.0497705,"1050 Woodward Avenue, Detroit MI",Downtown Detroit,,0,Kelsey Montague,
169,https://www.wyland.com/media/20110209104734%20.jpg,42.336082399999995,-83.0498275,"1565 Broadway St, Detroit, MI",Downtown Detroit,,1,Wyland,
170,http://patperry.net/cache/images/local/uploads/projects/sw_mural_patperryPanorama2_sa_3193_1000_40.jpg,42.3274354,-83.07929,"2605 Newark Street, Detroit, MI",Hubbard - Richard,,2,Pat Perry,
171,https://www.modeldmedia.com/Images/Features/issue610/1.jpg,42.315590500000006,-83.1139593,"6600 West Vernor Highway, Detroit, MI",Detroit,,3,Bernal Perez,
172,https://www.modeldmedia.com/Images/Features/issue610/2.jpg,42.3122464,-83.12533509999999,"7830 Vernor Hwy, Detroit MI",Springwells Village,,4,Ellen Rutt,
173,https://www.modeldmedia.com/Images/Features/issue610/3.jpg,42.363101,-82.9894527," 9300 Kercheval Ave, Detroit MI",English Village,,5,W.C. Bevan,
174,https://www.modeldmedia.com/Images/Features/issue610/4.jpg,42.3664159,-83.0089296,7900 Mack Ave,Islandview,,6,Ndubisi Okoye,
175,https://www.modeldmedia.com/Images/Features/issue610/7.jpg,42.295235299999995,-83.13323270000001,"9429 W Fort St, Detroit, MI",Carbon Works,,7,Freddy Diaz,
176,https://www.modeldmedia.com/Images/Features/issue610/9.jpg,42.442185200000004,-83.16627779999999,"20194 Mendota St, Detroit, MI ",Eight Mile Wyoming,,8,Various -Designed by Chazz Miller,
177,https://www.modeldmedia.com/Images/Features/issue610/10.jpg,42.429148600000005,-83.26415290000001,"22298 W 7 Mile Rd, Detroit MI",Detroit,,9,HOXXOH,
178,https://www.modeldmedia.com/Images/Features/issue610/6.jpg,42.4167906,-82.9923055,12355 Gratiot Ave,Detroit,,10,Jonny Alexander,
179,https://www.modeldmedia.com/Images/Features/issue610/8.jpg,42.3482662,-83.0883017,4765 14th St,Deerfield Beach,,11,Michael Olszewski ,
